{
  "type": "FeatureCollection",
  "features": [
    {
      "type": "Feature",
      "properties": {
        "norad_id": 32088,
        "name": "FENGYUN 1C DEB",
        "group": "fengyun-1c-debris",
        "lat": -48.995608619140626,
        "lon": 28.65884686777489,
        "alt_km": 1261.9107685152994,
        "timestamp": "2025-12-21T14:40:48.202063+00:00",
        "meta_object_name": "FENGYUN 1C DEB",
        "meta_object_id": "1999-025CQE",
        "meta_epoch": "2025-12-19T21:37:34.248576",
        "meta_mean_motion": 13.25211072,
        "meta_eccentricity": 0.0461693,
        "meta_inclination": 102.4007,
        "meta_ra_of_asc_node": 221.2759,
        "meta_arg_of_pericenter": 341.7682,
        "meta_mean_anomaly": 16.7342,
        "meta_ephemeris_type": 0,
        "meta_classification_type": "U",
        "meta_norad_cat_id": 32088,
        "meta_element_set_no": 999,
        "meta_rev_at_epoch": 59939,
        "meta_bstar": 0.0023611,
        "meta_mean_motion_dot": 1.76e-05,
        "meta_mean_motion_ddot": 0,
        "tle_line1": "1 32088U 99025CQE 25353.90109084  .00001760  00000+0  23611-2 0  9993",
        "tle_line2": "2 32088 102.4007 221.2759 0461693 341.7682  16.7342 13.25211072599397"
      },
      "geometry": {
        "type": "Point",
        "coordinates": [
          28.65884686777489,
          -48.995608619140626
        ]
      }
    },
    {
      "type": "Feature",
      "properties": {
        "norad_id": 32089,
        "name": "FENGYUN 1C DEB",
        "group": "fengyun-1c-debris",
        "lat": -73.915143245208,
        "lon": 32.79336364133091,
        "alt_km": 933.5993686997153,
        "timestamp": "2025-12-21T14:40:48.202074+00:00",
        "meta_object_name": "FENGYUN 1C DEB",
        "meta_object_id": "1999-025CQF",
        "meta_epoch": "2025-12-16T17:52:20.830656",
        "meta_mean_motion": 14.14077902,
        "meta_eccentricity": 0.01123897,
        "meta_inclination": 98.6547,
        "meta_ra_of_asc_node": 356.1944,
        "meta_arg_of_pericenter": 112.6503,
        "meta_mean_anomaly": 248.6602,
        "meta_ephemeris_type": 0,
        "meta_classification_type": "U",
        "meta_norad_cat_id": 32089,
        "meta_element_set_no": 999,
        "meta_rev_at_epoch": 63272,
        "meta_bstar": 0.00051322825,
        "meta_mean_motion_dot": 9.96e-06,
        "meta_mean_motion_ddot": 0,
        "tle_line1": "1 32089U 99025CQF 25350.74468554  .00000996  00000+0  51323-3 0  9995",
        "tle_line2": "2 32089  98.6547 356.1944 0112389 112.6503 248.6602 14.14077902632720"
      },
      "geometry": {
        "type": "Point",
        "coordinates": [
          32.79336364133091,
          -73.915143245208
        ]
      }
    },
    {
      "type": "Feature",
      "properties": {
        "norad_id": 32093,
        "name": "FENGYUN 1C DEB",
        "group": "fengyun-1c-debris",
        "lat": -32.48777452456546,
        "lon": 23.037856911787685,
        "alt_km": 795.5902624757236,
        "timestamp": "2025-12-21T14:40:48.202084+00:00",
        "meta_object_name": "FENGYUN 1C DEB",
        "meta_object_id": "1999-025CQK",
        "meta_epoch": "2025-12-17T21:09:28.777248",
        "meta_mean_motion": 14.37620073,
        "meta_eccentricity": 0.00791445,
        "meta_inclination": 98.9196,
        "meta_ra_of_asc_node": 204.9088,
        "meta_arg_of_pericenter": 338.4281,
        "meta_mean_anomaly": 21.3576,
        "meta_ephemeris_type": 0,
        "meta_classification_type": "U",
        "meta_norad_cat_id": 32093,
        "meta_element_set_no": 999,
        "meta_rev_at_epoch": 96591,
        "meta_bstar": 0.00035426884,
        "meta_mean_motion_dot": 1.054e-05,
        "meta_mean_motion_ddot": 0,
        "tle_line1": "1 32093U 99025CQK 25351.88158307  .00001054  00000+0  35427-3 0  9991",
        "tle_line2": "2 32093  98.9196 204.9088 0079144 338.4281  21.3576 14.37620073965913"
      },
      "geometry": {
        "type": "Point",
        "coordinates": [
          23.037856911787685,
          -32.48777452456546
        ]
      }
    },
    {
      "type": "Feature",
      "properties": {
        "norad_id": 32094,
        "name": "FENGYUN 1C DEB",
        "group": "fengyun-1c-debris",
        "lat": -42.02159817972869,
        "lon": 157.81269090483644,
        "alt_km": 840.2196836047169,
        "timestamp": "2025-12-21T14:40:48.202094+00:00",
        "meta_object_name": "FENGYUN 1C DEB",
        "meta_object_id": "1999-025CQL",
        "meta_epoch": "2025-12-21T05:06:54.522720",
        "meta_mean_motion": 14.10737989,
        "meta_eccentricity": 0.00341017,
        "meta_inclination": 98.7448,
        "meta_ra_of_asc_node": 345.3972,
        "meta_arg_of_pericenter": 243.828,
        "meta_mean_anomaly": 115.9383,
        "meta_ephemeris_type": 0,
        "meta_classification_type": "U",
        "meta_norad_cat_id": 32094,
        "meta_element_set_no": 999,
        "meta_rev_at_epoch": 94484,
        "meta_bstar": 0.00027112552,
        "meta_mean_motion_dot": 4.44e-06,
        "meta_mean_motion_ddot": 0,
        "tle_line1": "1 32094U 99025CQL 25355.21313105  .00000444  00000+0  27113-3 0  9997",
        "tle_line2": "2 32094  98.7448 345.3972 0034101 243.8280 115.9383 14.10737989944847"
      },
      "geometry": {
        "type": "Point",
        "coordinates": [
          157.81269090483644,
          -42.02159817972869
        ]
      }
    },
    {
      "type": "Feature",
      "properties": {
        "norad_id": 32095,
        "name": "FENGYUN 1C DEB",
        "group": "fengyun-1c-debris",
        "lat": -24.49433377402075,
        "lon": -173.01122996514405,
        "alt_km": 886.2694905398585,
        "timestamp": "2025-12-21T14:40:48.202105+00:00",
        "meta_object_name": "FENGYUN 1C DEB",
        "meta_object_id": "1999-025CQM",
        "meta_epoch": "2025-12-19T07:27:26.684928",
        "meta_mean_motion": 14.16046866,
        "meta_eccentricity": 0.0079063,
        "meta_inclination": 98.6406,
        "meta_ra_of_asc_node": 8.7292,
        "meta_arg_of_pericenter": 73.5373,
        "meta_mean_anomaly": 287.4472,
        "meta_ephemeris_type": 0,
        "meta_classification_type": "U",
        "meta_norad_cat_id": 32095,
        "meta_element_set_no": 999,
        "meta_rev_at_epoch": 94910,
        "meta_bstar": 0.00022441,
        "meta_mean_motion_dot": 4.15e-06,
        "meta_mean_motion_ddot": 0,
        "tle_line1": "1 32095U 99025CQM 25353.31072552  .00000415  00000+0  22441-3 0  9992",
        "tle_line2": "2 32095  98.6406   8.7292 0079063  73.5373 287.4472 14.16046866949104"
      },
      "geometry": {
        "type": "Point",
        "coordinates": [
          -173.01122996514405,
          -24.49433377402075
        ]
      }
    },
    {
      "type": "Feature",
      "properties": {
        "norad_id": 32096,
        "name": "FENGYUN 1C DEB",
        "group": "fengyun-1c-debris",
        "lat": -69.90243405727732,
        "lon": 178.49571918671262,
        "alt_km": 1005.1849834321965,
        "timestamp": "2025-12-21T14:40:48.202115+00:00",
        "meta_object_name": "FENGYUN 1C DEB",
        "meta_object_id": "1999-025CQN",
        "meta_epoch": "2025-12-19T20:01:42.439872",
        "meta_mean_motion": 13.90214734,
        "meta_eccentricity": 0.01346293,
        "meta_inclination": 99.0729,
        "meta_ra_of_asc_node": 22.6552,
        "meta_arg_of_pericenter": 120.8024,
        "meta_mean_anomaly": 240.6466,
        "meta_ephemeris_type": 0,
        "meta_classification_type": "U",
        "meta_norad_cat_id": 32096,
        "meta_element_set_no": 999,
        "meta_rev_at_epoch": 92960,
        "meta_bstar": 0.00089068221,
        "meta_mean_motion_dot": 1.144e-05,
        "meta_mean_motion_ddot": 0,
        "tle_line1": "1 32096U 99025CQN 25353.83451898  .00001144  00000+0  89068-3 0  9992",
        "tle_line2": "2 32096  99.0729  22.6552 0134629 120.8024 240.6466 13.90214734929600"
      },
      "geometry": {
        "type": "Point",
        "coordinates": [
          178.49571918671262,
          -69.90243405727732
        ]
      }
    },
    {
      "type": "Feature",
      "properties": {
        "norad_id": 32098,
        "name": "FENGYUN 1C DEB",
        "group": "fengyun-1c-debris",
        "lat": 8.228785340022108,
        "lon": 169.0825393875682,
        "alt_km": 792.5705685917828,
        "timestamp": "2025-12-21T14:40:48.202125+00:00",
        "meta_object_name": "FENGYUN 1C DEB",
        "meta_object_id": "1999-025CQQ",
        "meta_epoch": "2025-12-17T05:04:00.480288",
        "meta_mean_motion": 14.20263212,
        "meta_eccentricity": 0.01958107,
        "meta_inclination": 98.6122,
        "meta_ra_of_asc_node": 343.5394,
        "meta_arg_of_pericenter": 106.9951,
        "meta_mean_anomaly": 255.2785,
        "meta_ephemeris_type": 0,
        "meta_classification_type": "U",
        "meta_norad_cat_id": 32098,
        "meta_element_set_no": 999,
        "meta_rev_at_epoch": 64291,
        "meta_bstar": 0.00022141039,
        "meta_mean_motion_dot": 5.31e-06,
        "meta_mean_motion_ddot": 0,
        "tle_line1": "1 32098U 99025CQQ 25351.21111667  .00000531  00000+0  22141-3 0  9999",
        "tle_line2": "2 32098  98.6122 343.5394 0195810 106.9951 255.2785 14.20263212642917"
      },
      "geometry": {
        "type": "Point",
        "coordinates": [
          169.0825393875682,
          8.228785340022108
        ]
      }
    }
  ]
}